STARLINK-32767          
1 62601U 25008Q   26068.01975586  .00029647  00000+0  10824-2 0  9997
2 62601  43.0024 281.5558 0001250 271.8016  88.2692 15.27585145 65523
FLOCK 4G-24             
1 62637U 25009AE  26068.72509072  .00010513  00000+0  38996-3 0  9991
2 62637  97.4061 151.5140 0001802 280.2808  79.8228 15.27784978 63732
